LUR-1                   
1 60506U 24149AQ  26068.79566301  .00009121  00000+0  32985-3 0  9998
2 60506  97.3790 148.4255 0002777 309.1571  50.9421 15.28658648 86785
STARLINK-33720          
1 63468U 25070J   26068.54516576  .00022742  00000+0  83312-3 0  9998
2 63468  42.9952 260.6789 0000623 340.7460  19.3367 15.27590949 52954
