[{"OBJECT_NAME":"LUR-1","OBJECT_ID":"2024-149AQ","EPOCH":"2026-03-09T19:05:45.284064","MEAN_MOTION":15.28658648,"ECCENTRICITY":0.00027765,"INCLINATION":97.379,"RA_OF_ASC_NODE":148.4255,"ARG_OF_PERICENTER":309.1571,"MEAN_ANOMALY":50.9421,"EPHEMERIS_TYPE":0,"CLASSIFICATION_TYPE":"U","NORAD_CAT_ID":60506,"ELEMENT_SET_NO":999,"REV_AT_EPOCH":8678,"BSTAR":0.0003298462,"MEAN_MOTION_DOT":9.121e-5,"MEAN_MOTION_DDOT":0},{"OBJECT_NAME":"STARLINK-33720","OBJECT_ID":"2025-070J","EPOCH":"2026-03-09T13:05:02.321664","MEAN_MOTION":15.27590949,"ECCENTRICITY":6.236e-5,"INCLINATION":42.9952,"RA_OF_ASC_NODE":260.6789,"ARG_OF_PERICENTER":340.746,"MEAN_ANOMALY":19.3367,"EPHEMERIS_TYPE":0,"CLASSIFICATION_TYPE":"U","NORAD_CAT_ID":63468,"ELEMENT_SET_NO":999,"REV_AT_EPOCH":5295,"BSTAR":0.00083312144,"MEAN_MOTION_DOT":0.00022742,"MEAN_MOTION_DDOT":0}]
